408P/Novichonok-Gerke,e,19.3448,189.4502,226.7569,4.747793,0.0952723,0.26791487,129.4113,06/25.0/2026,2000,g 11.0,4.0
# From MPC191631
410P/NEAT-LINEAR,e,9.3891,139.8825,313.4084,6.658893,0.0573589,0.51143153,104.7447,06/25.0/2026,2000,g 12.5,4.0
# From MPC191631
411P/Christensen,e,12.3841,77.6392,46.6150,5.812792,0.0703278,0.58193411,138.9223,06/25.0/2026,2000,g 13.5,4.0
# From MPC191632
412P/WISE,e,8.9288,0.8170,155.8195,3.112697,0.1794729,0.47901428,4.5695,06/25.0/2026,2000,g 17.0,4.0
# From MPC191632
413P/Larson,e,15.9476,38.9281,186.6407,3.738401,0.1363563,0.41730000,246.6988,06/25.0/2026,2000,g 14.0,4.0
# From MPC191632
414P/STEREO,e,23.4041,257.8156,210.7192,2.792798,0.2111761,0.81226567,57.3740,06/25.0/2026,2000,g 19.0,4.0
# From MPC191632
415P/Tenagra,e,31.8181,160.2588,345.9846,4.106432,0.1184424,0.19588049,231.4966,06/25.0/2026,2000,g 12.0,4.0
# From MPC191632
416P/Scotti,e,3.3646,355.7194,134.5070,4.005204,0.1229609,0.45571677,240.1188,06/25.0/2026,2000,g 15.5,4.0
# From MPC191632
417P/NEOWISE,e,11.3269,95.2455,142.1055,3.383918,0.1583341,0.53532038,307.6964,06/25.0/2026,2000,g 16.5,4.0
# From MPC191632
418P/LINEAR,e,5.7882,277.2289,307.6690,5.086388,0.0859191,0.66453600,147.1168,06/25.0/2026,2000,g 13.0,4.0
# From MPC191632
419P/PANSTARRS,e,2.7891,40.3207,187.5964,3.541679,0.1478735,0.27167293,253.2696,06/25.0/2026,2000,g 12.5,4.0
# From MPC191632
420P/Hill,e,14.5492,173.2246,156.4086,5.468256,0.0770781,0.49447241,115.8109,06/25.0/2026,2000,g 11.5,4.0
# From MPC191633
422P/Christensen,e,39.5799,36.0077,304.6998,6.270218,0.0627740,0.50518751,102.1816,06/25.0/2026,2000,g 11.0,4.0
# From MPC191633
423P/Lemmon,e,8.3387,33.2957,81.3069,6.187244,0.0640410,0.12267523,110.6726,06/25.0/2026,2000,g  8.0,4.0
# From MPC191633
425P/Kowalski,e,16.4028,210.0953,201.0400,6.355167,0.0615196,0.54314198,106.9676,06/25.0/2026,2000,g 12.0,4.0
# From MPC191633
426P/PANSTARRS,e,17.7838,280.3969,118.3778,3.186561,0.1732689,0.16069905,176.5925,06/25.0/2026,2000,g 13.5,4.0
# From MPEC 2026-L50
427P/ATLAS,e,11.8650,252.3246,99.5978,3.163580,0.1751604,0.31522575,209.3383,06/25.0/2026,2000,g 14.0,4.0
# From MPC191633
428P/Gibbs,e,8.5024,299.3051,36.8592,3.489866,0.1511788,0.51806972,282.7619,06/25.0/2026,2000,g 15.0,4.0
# From MPC191633
429P/LINEAR-Hill,e,7.5141,321.9931,75.7497,3.556958,0.1469217,0.49037325,240.2780,06/25.0/2026,2000,g 15.5,4.0
# From MPC191633
430P/Scotti,e,4.4765,54.6337,94.5022,3.102198,0.1803847,0.50056265,300.2233,06/25.0/2026,2000,g 16.5,4.0
# From MPC191633
431P/Scotti,e,22.3703,202.8208,200.0151,3.477912,0.1519589,0.47694360,242.0555,06/25.0/2026,2000,g 14.0,4.0
# From MPC191634
432P/PANSTARRS,e,10.0661,239.1276,105.2075,3.039056,0.1860356,0.24069981,327.7602,06/25.0/2026,2000,g 17.0,4.0
# From MPC191634
434P/Tenagra,e,6.3364,288.9104,128.4848,4.137780,0.1170989,0.27377768,199.3476,06/25.0/2026,2000,g 13.0,4.0
# From MPC191634
435P/PANSTARRS,e,18.8740,98.5236,244.1601,3.022307,0.1875842,0.31744152,336.8174,06/25.0/2026,2000,g 17.0,4.0
# From MPC191634
437P/Lemmon-PANSTARRS,e,3.6879,245.8425,207.1774,4.571501,0.1008361,0.25473124,141.6125,06/25.0/2026,2000,g 13.0,4.0
# From MPEC 2026-L50
438P/Christensen,e,8.2804,260.1117,58.9225,3.854430,0.1302458,0.41412190,296.5756,06/25.0/2026,2000,g 14.5,4.0
# From MPC191634
439P/LINEAR,e,7.1107,56.3985,342.1353,3.492599,0.1510014,0.46870767,266.3677,06/25.0/2026,2000,g 13.5,4.0
# From MPEC 2026-L50
441P/PANSTARRS,e,2.5748,143.5892,178.7912,4.129918,0.1174335,0.19424914,33.9427,06/25.0/2026,2000,g 13.5,4.0
# From MPC191634
442P/McNaught,e,6.0614,31.8004,310.5925,4.946445,0.0895910,0.53301771,126.1851,06/25.0/2026,2000,g 13.5,4.0
# From MPEC 2026-L50
443P/PANSTARRS-Christensen,e,19.8885,108.9312,144.9910,4.123990,0.1176868,0.28277999,159.5337,06/25.0/2026,2000,g 13.5,4.0
# From MPC191635
445P/Lemmon-PANSTARRS,e,1.0898,126.6095,213.0121,4.041841,0.1212929,0.41514902,170.9102,06/25.0/2026,2000,g 15.0,4.0
# From MPC191635
447P/Sheppard-Tholen,e,7.4418,302.6390,97.1758,5.619973,0.0739780,0.17674628,104.4980,06/25.0/2026,2000,g 12.0,4.0
# From MPC191635
448P/PANSTARRS,e,12.1415,161.7432,218.7997,3.637597,0.1420634,0.41768488,197.2837,06/25.0/2026,2000,g 16.0,4.0
# From MPC191635
449P/Leonard,e,15.4662,242.5099,176.7929,3.599330,0.1443350,0.47958533,293.9894,06/25.0/2026,2000,g 16.0,4.0
# From MPEC 2026-KB8
450P/LONEOS,e,11.2126,123.7784,32.2046,7.506441,0.0479240,0.28749796,344.9895,06/25.0/2026,2000,g  6.5,4.0
# From MPC191635
451P/Christensen,e,26.4881,300.8609,186.8567,6.354602,0.0615278,0.55929565,80.2749,06/25.0/2026,2000,g 13.5,4.0
# From MPC191635
452P/Sheppard-Jewitt,e,6.4226,123.6583,37.1690,7.317388,0.0497932,0.42894159,57.5274,06/25.0/2026,2000,g  9.0,4.0
# From MPC191636
453P/WISE-Lemmon,e,27.0464,42.8739,70.9605,5.470346,0.0770339,0.58311753,93.1687,06/25.0/2026,2000,g 14.0,4.0
# From MPC191636
454P/PANSTARRS,e,19.8016,54.5852,20.2518,4.213276,0.1139657,0.36102067,162.9106,06/25.0/2026,2000,g 14.0,4.0
# From MPC191636
455P/PANSTARRS,e,14.1333,146.1703,237.5233,3.154422,0.1759237,0.30402548,214.0610,06/25.0/2026,2000,g 17.0,4.0
# From MPC191636
456P/PANSTARRS,e,16.9648,243.1374,233.0021,3.168576,0.1747462,0.11550555,76.2205,06/25.0/2026,2000,g 13.5,4.0
# From MPC191636
457P/Lemmon-PANSTARRS,e,5.2255,175.9546,104.3356,2.645561,0.2290485,0.11804839,154.4125,06/25.0/2026,2000,g 15.5,4.0
# From MPC191636
458P/Jahn,e,13.6219,1.5335,105.0175,3.860072,0.1299604,0.31714305,173.2184,06/25.0/2026,2000,g 14.0,4.0
# From MPC191636
459P/Catalina,e,7.1715,256.9788,205.2560,3.240585,0.1689542,0.57780548,205.9542,06/25.0/2026,2000,g 15.5,4.0
# From MPC191636
461P/WISE,e,18.3926,194.3653,174.8148,3.145228,0.1766957,0.56933209,304.8456,06/25.0/2026,2000,g 18.5,4.0
# From MPC191637
464P/PANSTARRS,e,21.6723,309.5746,267.4575,4.682030,0.0972865,0.28099799,118.0580,06/25.0/2026,2000,g 10.5,4.0
# From MPC191637
465P/Hill,e,25.8644,217.8968,140.9420,5.998890,0.0670807,0.61276679,76.7331,06/25.0/2026,2000,g 12.5,4.0
# From MPC191637
466P/PANSTARRS,e,16.7901,114.9524,195.7359,3.975304,0.1243508,0.45266217,151.9864,06/25.0/2026,2000,g 14.0,4.0
# From MPC191637
467P/LINEAR-Grauer,e,2.4797,43.2617,266.7794,5.821811,0.0701644,0.05404894,92.3174,06/25.0/2026,2000,g  9.0,4.0
# From MPC191637
468P/SidingSpring,e,50.4589,356.1374,322.5096,7.110384,0.0519834,0.44451093,49.2528,06/25.0/2026,2000,g 11.5,4.0
# From MPC191637
469P/PANSTARRS,e,20.1700,178.9596,43.5056,4.345142,0.1088173,0.30841825,21.6079,06/25.0/2026,2000,g 13.5,4.0
# From MPC191637
470P/PANSTARRS,e,8.8441,246.1513,151.6027,4.460097,0.1046376,0.38912584,96.4627,06/25.0/2026,2000,g 15.5,4.0
# From MPC191637
471P/LINEAR-Lemmon,e,4.7961,283.3006,94.6625,5.681392,0.0727817,0.62747767,66.8612,06/25.0/2026,2000,g 12.0,4.0
# From MPC194204
472P/NEAT-LINEAR,e,10.8309,205.7758,218.7548,7.749080,0.0456908,0.56315715,32.5267,06/25.0/2026,2000,g 10.5,4.0
# From MPC191638
473P/NEAT,e,56.8663,22.1907,42.9575,7.973683,0.0437739,0.82348543,37.2025,06/25.0/2026,2000,g 13.5,4.0
# From MPC191638
474P/Hogan,e,1.0967,26.7518,11.2611,3.131524,0.1778568,0.18765924,191.3479,06/25.0/2026,2000,g 15.5,4.0
# From MPC191638
475P/Spacewatch-LINEAR,e,14.5249,147.3459,40.4583,7.324597,0.0497197,0.44330692,37.4369,06/25.0/2026,2000,g 11.0,4.0
# From MPC191638
476P/PANSTARRS,e,19.0044,57.0513,46.7720,4.775140,0.0944550,0.34568198,58.2257,06/25.0/2026,2000,g 12.5,4.0
# From MPC191638
477P/PANSTARRS,e,8.9142,59.1344,305.8337,3.001173,0.1895691,0.41765155,172.8318,06/25.0/2026,2000,g 14.5,4.0
# From MPC191638
478P/ATLAS,e,12.5257,127.2570,13.3073,3.649311,0.1413799,0.34383038,110.7825,06/25.0/2026,2000,g 13.5,4.0
# From MPC191638
480P/PANSTARRS,e,13.7129,229.9874,214.5297,4.613300,0.0994687,0.24600364,115.1799,06/25.0/2026,2000,g 12.0,4.0
# From MPC191638
481P/Lemmon-PANSTARRS,e,6.0824,93.5535,356.8944,4.684361,0.0972139,0.34320731,105.1422,06/25.0/2026,2000,g 13.5,4.0
# From MPC191638
482P/PANSTARRS,e,24.4904,126.0692,339.7717,3.757965,0.1352929,0.49223062,151.3495,06/25.0/2026,2000,g 13.5,4.0
# From MPEC 2026-HI3
483P/PANSTARRS,e,14.1833,198.7884,50.0398,3.192466,0.1727884,0.22137993,272.4653,06/25.0/2026,2000,g 16.5,4.0
# From MPC186638
483P-A/PANSTARRS,e,14.1833,198.7884,50.0401,3.192466,0.1727884,0.22138031,272.4649,06/25.0/2026,2000,g 13.5,4.0
# From MPC185666
483P-B/PANSTARRS,e,14.1841,198.7880,50.0308,3.192380,0.1727954,0.22132431,272.5022,06/25.0/2026,2000,g 17.0,4.0
# From MPC191639
484P/Spacewatch,e,14.4750,265.3534,240.8807,3.755204,0.1354421,0.43329380,275.4164,06/25.0/2026,2000,g 16.0,4.0
# From MPC191639
485P/Sheppard-Tholen,e,10.0155,261.6504,196.1919,6.854976,0.0549155,0.41705139,56.8044,06/25.0/2026,2000,g 13.0,4.0
# From MPC194204
486P/Leonard,e,2.2098,219.0234,93.9300,3.626398,0.1427220,0.36325603,63.8320,06/25.0/2026,2000,g 14.5,4.0
# From MPC191639
487P/SidingSpring,e,39.3654,49.2023,0.8340,5.159133,0.0841083,0.64817962,51.5201,06/25.0/2026,2000,g 13.5,4.0
# From MPC191639
488P/NEAT-PANSTARRS,e,11.8104,322.4214,4.6507,3.797514,0.1331849,0.54724059,101.9275,06/25.0/2026,2000,g 16.5,4.0
# From MPEC 2024-Q14
489P/Denning,e,4.0260,20.5971,109.4233,4.423991,0.1059212,0.64705260,21.4699,06/25.0/2026,2000,g 15.5,4.0
# From MPEC 2026-KB8
491P/Spacewatch-PANSTARRS,e,9.3670,311.6831,298.8004,5.012193,0.0878340,0.25878659,57.7439,06/25.0/2026,2000,g  9.5,4.0
# From MPC194204
492P/LINEAR,e,11.4002,11.3058,40.9778,5.756457,0.0713627,0.69033843,50.2917,06/25.0/2026,2000,g 15.0,4.0
# From MPEC 2026-KB8
493P/LONEOS,e,24.1102,1.0274,83.3041,7.191187,0.0511097,0.46837816,8.2653,06/25.0/2026,2000,g  8.5,4.0
# From MPC191640
494P/PANSTARRS,e,7.7891,245.0442,48.8905,3.794411,0.1333483,0.35643141,100.7128,06/25.0/2026,2000,g 16.0,4.0
# From MPEC 2026-L50
495P/Christensen,e,26.3492,291.6138,141.3355,4.775543,0.0944430,0.27564257,23.1874,06/25.0/2026,2000,g 11.5,4.0
# From MPC191640
496P/Hill,e,14.8124,63.5900,42.2691,6.101147,0.0654014,0.73418733,30.8514,06/25.0/2026,2000,g 14.0,4.0
# From MPC191640
